{"type": "FeatureCollection", "features": [ {"type": "Feature", "properties": {"norad_id": 66866, "name": "STARLINK-36126", "group": "last-30-days", "lat": -30.355752867104176, "lon": 71.07935539297392, "alt_km": 262.7784876739506, "timestamp": "2025-12-14T16:47:39.438863+00:00", "meta": {"OBJECT_NAME": "STARLINK-36126", "OBJECT_ID": "2025-281U", "EPOCH": "2025-12-13T07:59:03.585696", "MEAN_MOTION": 15.93983897, "ECCENTRICITY": 0.00187508, "INCLINATION": 43.0012, "RA_OF_ASC_NODE": 118.5881, "ARG_OF_PERICENTER": 292.0437, "MEAN_ANOMALY": 67.8447, "EPHEMERIS_TYPE": 0, "CLASSIFICATION_TYPE": "U", "NORAD_CAT_ID": 66866, "ELEMENT_SET_NO": 999, "REV_AT_EPOCH": 288, "BSTAR": 0.0059452705, "MEAN_MOTION_DOT": 0.02217371, "MEAN_MOTION_DDOT": 0.0030689971}, "tle": {"line1": "1 66866U 25281U   25347.33268039  .02217371  30690-2  59453-2 0  9996", "line2": "2 66866  43.0012 118.5881 0018750 292.0437  67.8447 15.93983897  2880"}}, "geometry": {"type": "Point", "coordinates": [71.07935539297392, -30.355752867104176]}}, {"type": "Feature", "properties": {"norad_id": 66867, "name": "STARLINK-36101", "group": "last-30-days", "lat": -30.06817154616446, "lon": 71.60156541819097, "alt_km": 251.21701919434236, "timestamp": "2025-12-14T16:47:39.438874+00:00", "meta": {"OBJECT_NAME": "STARLINK-36101", "OBJECT_ID": "2025-281V", "EPOCH": "2025-12-13T20:00:45.294912", "MEAN_MOTION": 15.95839241, "ECCENTRICITY": 0.00272953, "INCLINATION": 42.9992, "RA_OF_ASC_NODE": 115.4588, "ARG_OF_PERICENTER": 301.8976, "MEAN_ANOMALY": 57.9246, "EPHEMERIS_TYPE": 0, "CLASSIFICATION_TYPE": "U", "NORAD_CAT_ID": 66867, "ELEMENT_SET_NO": 999, "REV_AT_EPOCH": 296, "BSTAR": 0.0088091737, "MEAN_MOTION_DOT": 0.03284309, "MEAN_MOTION_DDOT": 0.012346434}, "tle": {"line1": "1 66867U 25281V   25347.83385758  .03284309  12346-1  88092-2 0  9994", "line2": "2 66867  42.9992 115.4588 0027295 301.8976  57.9246 15.95839241  2968"}}, "geometry": {"type": "Point", "coordinates": [71.60156541819097, -30.06817154616446]}}, {"type": "Feature", "properties": {"norad_id": 66868, "name": "STARLINK-36108", "group": "last-30-days", "lat": -42.91220958516548, "lon": 24.052603481824796, "alt_km": 309.0300526766059, "timestamp": "2025-12-14T16:47:39.438886+00:00", "meta": {"OBJECT_NAME": "STARLINK-36108", "OBJECT_ID": "2025-281W", "EPOCH": "2025-12-13T18:31:36.898176", "MEAN_MOTION": 15.89057816, "ECCENTRICITY": 0.00021219, "INCLINATION": 43.001, "RA_OF_ASC_NODE": 115.855, "ARG_OF_PERICENTER": 258.4269, "MEAN_ANOMALY": 101.6367, "EPHEMERIS_TYPE": 0, "CLASSIFICATION_TYPE": "U", "NORAD_CAT_ID": 66868, "ELEMENT_SET_NO": 999, "REV_AT_EPOCH": 295, "BSTAR": -0.0015089998, "MEAN_MOTION_DOT": -0.00427259, "MEAN_MOTION_DDOT": 0}, "tle": {"line1": "1 66868U 25281W   25347.77195484 -.00427259  00000+0 -15090-2 0  9995", "line2": "2 66868  43.0010 115.8550 0002121 258.4269 101.6367 15.89057816  2951"}}, "geometry": {"type": "Point", "coordinates": [24.052603481824796, -42.91220958516548]}}, {"type": "Feature", "properties": {"norad_id": 66869, "name": "STARLINK-36092", "group": "last-30-days", "lat": -38.43411726023408, "lon": 51.6713866412243, "alt_km": 295.26548506808103, "timestamp": "2025-12-14T16:47:39.438900+00:00", "meta": {"OBJECT_NAME": "STARLINK-36092", "OBJECT_ID": "2025-281X", "EPOCH": "2025-12-13T01:55:45.595776", "MEAN_MOTION": 15.91502527, "ECCENTRICITY": 0.00041167, "INCLINATION": 43.0013, "RA_OF_ASC_NODE": 120.1353, "ARG_OF_PERICENTER": 341.7678, "MEAN_ANOMALY": 18.3049, "EPHEMERIS_TYPE": 0, "CLASSIFICATION_TYPE": "U", "NORAD_CAT_ID": 66869, "ELEMENT_SET_NO": 999, "REV_AT_EPOCH": 284, "BSTAR": 0.0014316425, "MEAN_MOTION_DOT": 0.00477973, "MEAN_MOTION_DDOT": 9.5405516e-05}, "tle": {"line1": "1 66869U 25281X   25347.08038884  .00477973  95406-4  14316-2 0  9995", "line2": "2 66869  43.0013 120.1353 0004116 341.7678  18.3049 15.91502527  2847"}}, "geometry": {"type": "Point", "coordinates": [51.6713866412243, -38.43411726023408]}}, {"type": "Feature", "properties": {"norad_id": 66870, "name": "STARLINK-36114", "group": "last-30-days", "lat": -38.38966305820576, "lon": 51.81517952344578, "alt_km": 295.82687912847996, "timestamp": "2025-12-14T16:47:39.438911+00:00", "meta": {"OBJECT_NAME": "STARLINK-36114", "OBJECT_ID": "2025-281Y", "EPOCH": "2025-12-13T06:26:11.296320", "MEAN_MOTION": 15.91056469, "ECCENTRICITY": 0.00049871, "INCLINATION": 43.0001, "RA_OF_ASC_NODE": 118.961, "ARG_OF_PERICENTER": 229.5903, "MEAN_ANOMALY": 130.4538, "EPHEMERIS_TYPE": 0, "CLASSIFICATION_TYPE": "U", "NORAD_CAT_ID": 66870, "ELEMENT_SET_NO": 999, "REV_AT_EPOCH": 287, "BSTAR": 0.0017450127, "MEAN_MOTION_DOT": 0.00569729, "MEAN_MOTION_DDOT": 0.00013346303}, "tle": {"line1": "1 66870U 25281Y   25347.26818630  .00569729  13346-3  17450-2 0  9997", "line2": "2 66870  43.0001 118.9610 0004987 229.5903 130.4538 15.91056469  2878"}}, "geometry": {"type": "Point", "coordinates": [51.81517952344578, -38.38966305820576]}}, {"type": "Feature", "properties": {"norad_id": 66871, "name": "STARLINK-36095", "group": "last-30-days", "lat": -41.074578295338995, "lon": 40.79804416962309, "alt_km": 307.1445946849699, "timestamp": "2025-12-14T16:47:39.438920+00:00", "meta": {"OBJECT_NAME": "STARLINK-36095", "OBJECT_ID": "2025-281Z", "EPOCH": "2025-12-13T16:58:03.845280", "MEAN_MOTION": 15.89370845, "ECCENTRICITY": 0.00051282, "INCLINATION": 43.0005, "RA_OF_ASC_NODE": 116.2268, "ARG_OF_PERICENTER": 306.2859, "MEAN_ANOMALY": 53.7542, "EPHEMERIS_TYPE": 0, "CLASSIFICATION_TYPE": "U", "NORAD_CAT_ID": 66871, "ELEMENT_SET_NO": 999, "REV_AT_EPOCH": 294, "BSTAR": -0.0018390779, "MEAN_MOTION_DOT": -0.00524159, "MEAN_MOTION_DDOT": 0}, "tle": {"line1": "1 66871U 25281Z   25347.70698895 -.00524159  00000+0 -18391-2 0  9990", "line2": "2 66871  43.0005 116.2268 0005128 306.2859  53.7542 15.89370845  2948"}}, "geometry": {"type": "Point", "coordinates": [40.79804416962309, -41.074578295338995]}}, {"type": "Feature", "properties": {"norad_id": 66872, "name": "STARLINK-36082", "group": "last-30-days", "lat": -40.44856690940661, "lon": 43.88316019499181, "alt_km": 309.7090114067132, "timestamp": "2025-12-14T16:47:39.438931+00:00", "meta": {"OBJECT_NAME": "STARLINK-36082", "OBJECT_ID": "2025-281AA", "EPOCH": "2025-12-13T16:57:12.524544", "MEAN_MOTION": 15.89399653, "ECCENTRICITY": 0.00029555, "INCLINATION": 43.0007, "RA_OF_ASC_NODE": 116.2209, "ARG_OF_PERICENTER": 288.9993, "MEAN_ANOMALY": 71.0561, "EPHEMERIS_TYPE": 0, "CLASSIFICATION_TYPE": "U", "NORAD_CAT_ID": 66872, "ELEMENT_SET_NO": 999, "REV_AT_EPOCH": 294, "BSTAR": -0.0029250161, "MEAN_MOTION_DOT": -0.00807779, "MEAN_MOTION_DDOT": 0}, "tle": {"line1": "1 66872U 25281AA  25347.70639496 -.00807779  00000+0 -29250-2 0  9991", "line2": "2 66872  43.0007 116.2209 0002955 288.9993  71.0561 15.89399653  2948"}}, "geometry": {"type": "Point", "coordinates": [43.88316019499181, -40.44856690940661]}}, {"type": "Feature", "properties": {"norad_id": 66873, "name": "STARLINK-36128", "group": "last-30-days", "lat": -29.252427150233764, "lon": -32.77193933863969, "alt_km": 383.522783158759, "timestamp": "2025-12-14T16:47:39.438941+00:00", "meta": {"OBJECT_NAME": "STARLINK-36128", "OBJECT_ID": "2025-281AB", "EPOCH": "2025-12-13T07:53:24.485568", "MEAN_MOTION": 15.83609587, "ECCENTRICITY": 0.00309005, "INCLINATION": 43.0006, "RA_OF_ASC_NODE": 118.5515, "ARG_OF_PERICENTER": 57.476, "MEAN_ANOMALY": 302.9091, "EPHEMERIS_TYPE": 0, "CLASSIFICATION_TYPE": "U", "NORAD_CAT_ID": 66873, "ELEMENT_SET_NO": 999, "REV_AT_EPOCH": 283, "BSTAR": -0.039361402, "MEAN_MOTION_DOT": -0.07328802, "MEAN_MOTION_DDOT": 0}, "tle": {"line1": "1 66873U 25281AB  25347.32875562 -.07328802  00000+0 -39361-1 0  9991", "line2": "2 66873  43.0006 118.5515 0030900  57.4760 302.9091 15.83609587  2831"}}, "geometry": {"type": "Point", "coordinates": [-32.77193933863969, -29.252427150233764]}}, {"type": "Feature", "properties": {"norad_id": 66874, "name": "STARLINK-36129", "group": "last-30-days", "lat": -39.4814158725756, "lon": 47.93068738153324, "alt_km": 307.2508145323445, "timestamp": "2025-12-14T16:47:39.438953+00:00", "meta": {"OBJECT_NAME": "STARLINK-36129", "OBJECT_ID": "2025-281AC", "EPOCH": "2025-12-13T07:54:19.825632", "MEAN_MOTION": 15.90418355, "ECCENTRICITY": 0.00037816, "INCLINATION": 43.0008, "RA_OF_ASC_NODE": 118.5585, "ARG_OF_PERICENTER": 317.1783, "MEAN_ANOMALY": 42.8797, "EPHEMERIS_TYPE": 0, "CLASSIFICATION_TYPE": "U", "NORAD_CAT_ID": 66874, "ELEMENT_SET_NO": 999, "REV_AT_EPOCH": 288, "BSTAR": -0.0022089003, "MEAN_MOTION_DOT": -0.00654209, "MEAN_MOTION_DDOT": 0}, "tle": {"line1": "1 66874U 25281AC  25347.32939613 -.00654209  00000+0 -22089-2 0  9996", "line2": "2 66874  43.0008 118.5585 0003781 317.1783  42.8797 15.90418355  2886"}}, "geometry": {"type": "Point", "coordinates": [47.93068738153324, -39.4814158725756]}}, {"type": "Feature", "properties": {"norad_id": 66875, "name": "STARLINK-36053", "group": "last-30-days", "lat": -37.2895245326849, "lon": 55.24148997375003, "alt_km": 308.70753102786875, "timestamp": "2025-12-14T16:47:39.438965+00:00", "meta": {"OBJECT_NAME": "STARLINK-36053", "OBJECT_ID": "2025-281AD", "EPOCH": "2025-12-13T18:25:36.768288", "MEAN_MOTION": 15.89215249, "ECCENTRICITY": 0.00015193, "INCLINATION": 43.0004, "RA_OF_ASC_NODE": 115.8195, "ARG_OF_PERICENTER": 304.077, "MEAN_ANOMALY": 55.9961, "EPHEMERIS_TYPE": 0, "CLASSIFICATION_TYPE": "U", "NORAD_CAT_ID": 66875, "ELEMENT_SET_NO": 999, "REV_AT_EPOCH": 290, "BSTAR": -0.0014393646, "MEAN_MOTION_DOT": -0.00411466, "MEAN_MOTION_DDOT": 0}, "tle": {"line1": "1 66875U 25281AD  25347.76778667 -.00411466  00000+0 -14394-2 0  9991", "line2": "2 66875  43.0004 115.8195 0001519 304.0770  55.9961 15.89215249  2904"}}, "geometry": {"type": "Point", "coordinates": [55.24148997375003, -37.2895245326849]}}]}